IRIDIUM 8 [+]           
1 24792U 97020A   15289.39001924  .00000291  00000-0  96937-4 0  9995
2 24792  86.3999 213.5553 0003017  71.3050 288.8473 14.34218819965798
IRIDIUM 7 [+]           
1 24793U 97020B   15289.38367384  .00000307  00000-0  10254-3 0  9995
2 24793  86.4010 213.8070 0002158  81.8120 278.3321 14.34216117965795
IRIDIUM 6 [+]           
1 24794U 97020C   15289.51674660  .00000292  00000-0  97130-4 0  9991
2 24794  86.4008 213.6956 0002127  84.4317 275.7121 14.34218687965813
IRIDIUM 5 [+]           
1 24795U 97020D   15289.37098882  .00000358  00000-0  12071-3 0  9995
2 24795  86.4008 213.8118 0002415  82.5178 277.6292 14.34216588965874
IRIDIUM 4 [-]           
1 24796U 97020E   15289.40471286  .00000214  00000-0  68377-4 0  9995
2 24796  86.4004 213.0925 0002048  83.1893  55.1591 14.34990152965857
IRIDIUM 914 [-]         
1 24836U 97030A   15289.46036446  .00000224  00000-0  66580-4 0  9997
2 24836  86.3959 231.4458 0001549  37.6371 100.4603 14.38595099961281
IRIDIUM 12 [+]          
1 24837U 97030B   15289.40884742  .00000209  00000-0  67532-4 0  9993
2 24837  86.3956 244.9414 0002229  83.1499  28.9362 14.34219870959541
IRIDIUM 10 [+]          
1 24839U 97030D   15289.46784950  .00000209  00000-0  67639-4 0  9999
2 24839  86.3956 244.9001 0002202  83.1382  38.9895 14.34220417959560
IRIDIUM 13 [+]          
1 24840U 97030E   15289.49005567  .00000213  00000-0  69028-4 0  9993
2 24840  86.3958 245.0181 0002331  80.1019  58.4653 14.34220271959558
IRIDIUM 16 [-]          
1 24841U 97030F   15289.40867603  .00000222  00000-0  69042-4 0  9998
2 24841  86.4036 245.3088 0004071 106.3412 253.8233 14.36543785960037
IRIDIUM 911 [-]         
1 24842U 97030G   15289.48897168  .00000314  00000-0  84619-4 0  9995
2 24842  86.4461 246.4127 0013222 323.4694 175.2482 14.44740808964905
IRIDIUM 15 [+]          
1 24869U 97034A   15289.54741707  .00000015  00000-0 -18057-5 0  9995
2 24869  86.3921 276.6191 0002257  87.3551  35.2474 14.34217329956536
IRIDIUM 17 [-]          
1 24870U 97034B   15289.48002725  .00000204  00000-0  64041-4 0  9992
2 24870  86.3926 275.5725 0003159  76.6980  34.6614 14.35577101956686
IRIDIUM 920 [-]         
1 24871U 97034C   15289.52711731  .00000222  00000-0  65061-4 0  9995
2 24871  86.3948 263.2004 0011657 175.0213 324.1596 14.39313909958653
IRIDIUM 18 [+]          
1 24872U 97034D   15289.48563921  .00000008  00000-0 -41226-5 0  9998
2 24872  86.3924 276.8690 0002289  90.6145 269.5313 14.34218944956527
IRIDIUM 921 [-]         
1 24873U 97034E   15289.32864189  .00003500  00000-0  21773-3 0  9994
2 24873  86.3983 353.8288 0010800 102.3466 302.8653 15.09241251996046
IRIDIUM 26 [-]          
1 24903U 97043A   15289.53232667  .00000170  00000-0  52700-4 0  9996
2 24903  86.3980 150.0522 0002107  91.8965 330.5377 14.35111729950531
IRIDIUM 25 [+]          
1 24904U 97043B   15289.57342401  .00000103  00000-0  29712-4 0  9992
2 24904  86.3975 150.3046 0002134  89.0977 271.0463 14.34218176950440
IRIDIUM 46 [+]          
1 24905U 97043C   15289.23726163  .00000194  00000-0  62045-4 0  9993
2 24905  86.3986 150.9422 0002136  85.4667 274.6773 14.34216259950404
IRIDIUM 23 [S]          
1 24906U 97043D   15289.25735177  .00000184  00000-0  58648-4 0  9994
2 24906  86.3988 150.3922 0001970  89.5597  46.9441 14.34217611950414
IRIDIUM 22 [+]          
1 24907U 97043E   15289.56625317  .00000195  00000-0  62684-4 0  9990
2 24907  86.3985 150.9052 0002019  85.9240 335.3943 14.34218323950459
DUMMY MASS 1 [-]        
1 24925U 97048A   15289.65527456  .00000188  00000-0  18740-4 0  9996
2 24925  86.3345 324.3993 0008718  50.2181 309.9809 14.84995535981129
DUMMY MASS 2 [-]        
1 24926U 97048B   15289.20226465  .00000181  00000-0  18057-4 0  9998
2 24926  86.3347 325.6240 0009740  56.0028 345.9173 14.84764761980927
IRIDIUM 29 [-]          
1 24944U 97051A   15289.28131517 -.00000115  00000-0 -47869-4 0  9995
2 24944  86.4019 181.9748 0001913  75.3405 284.8003 14.34505828946980
IRIDIUM 32 [+]          
1 24945U 97051B   15289.30412745  .00000310  00000-0  10376-3 0  9991
2 24945  86.4013 182.0479 0001998  83.5536 276.5887 14.34216267947005
IRIDIUM 33 [-]          
1 24946U 97051C   15289.33700071  .00000193  00000-0  62709-4 0  9994
2 24946  86.3930 181.9645 0009947  73.5065  60.0056 14.33421770946676
IRIDIUM 28 [-]          
1 24948U 97051E   15289.28669632  .00000201  00000-0  63029-4 0  9993
2 24948  86.4020 181.5505 0002374  90.0251  30.1342 14.35399020947084
IRIDIUM 30 [+]          
1 24949U 97051F   15289.29778465  .00000288  00000-0  95801-4 0  9998
2 24949  86.4015 182.1369 0002000  85.1158 275.0267 14.34216329946984
IRIDIUM 31 [+]          
1 24950U 97051G   15289.29143411  .00000323  00000-0  10836-3 0  9991
2 24950  86.4015 182.1406 0002086  78.5226 281.6204 14.34215327946996
IRIDIUM 19 [+]          
1 24965U 97056A   15289.34561720  .00000318  00000-0  10647-3 0  9999
2 24965  86.4006 213.5800 0002144  81.5508 278.5931 14.34216338945142
IRIDIUM 35 [+]          
1 24966U 97056B   15289.84668151  .00000051  00000-0  11316-4 0  9990
2 24966  86.4004 213.3694 0002260  81.0572 279.0879 14.34217883945193
IRIDIUM 36 [-]          
1 24967U 97056C   15289.38611810  .00000210  00000-0  66432-4 0  9996
2 24967  86.4017 213.0880 0002191  79.4961  59.6105 14.35442857945385
IRIDIUM 37 [+]          
1 24968U 97056D   15289.40269640  .00000315  00000-0  10551-3 0  9996
2 24968  86.4007 213.7234 0002124  80.6472 279.4963 14.34217147945130
IRIDIUM 34 [+]          
1 24969U 97056E   15289.35195775  .00000283  00000-0  94044-4 0  9992
2 24969  86.4008 213.6820 0002164  81.4557 278.6884 14.34217142945126
IRIDIUM 43 [+]          
1 25039U 97069A   15289.47927845  .00000034  00000-0  50849-5 0  9999
2 25039  86.3916 276.7885 0002315  84.5569 275.5891 14.34218661938929
IRIDIUM 41 [+]          
1 25040U 97069B   15289.49465329  .00000011  00000-0 -31654-5 0  9996
2 25040  86.3923 276.7549 0002308  92.3574  19.7113 14.34217849938923
IRIDIUM 40 [+]          
1 25041U 97069C   15289.49832904  .00000015  00000-0 -16763-5 0  9992
2 25041  86.3909 276.9802 0002530  58.1308 302.0133 14.34216427938947
IRIDIUM 39 [+]          
1 25042U 97069D   15289.50458451  .00000007  00000-0 -46879-5 0  9998
2 25042  86.3923 277.0107 0002231  94.3943 265.7507 14.34215316938923
IRIDIUM 38 [-]          
1 25043U 97069E   15289.50940792  .00000186  00000-0  57499-4 0  9999
2 25043  86.3926 274.6464 0003273  98.5232  15.8246 14.35859256939248
IRIDIUM 42 [-]          
1 25077U 97077A   15289.52766925  .00000121  00000-0  35972-4 0  9992
2 25077  86.3927 276.7767 0002363  90.6801 269.4665 14.34409919934792
IRIDIUM 44 [-]          
1 25078U 97077B   15289.48170633  .00000218  00000-0  65610-4 0  9992
2 25078  86.3932 267.8603 0003765  97.5438  15.6113 14.37928929936014
IRIDIUM 45 [+]          
1 25104U 97082A   15289.28510512  .00000313  00000-0  10469-3 0  9997
2 25104  86.4012 182.1913 0003329 104.5475 255.6090 14.34216558932957
IRIDIUM 24 [-]          
1 25105U 97082B   15289.54803499  .00000230  00000-0  66992-4 0  9997
2 25105  86.3915 132.8893 0011329 182.1967 232.2468 14.39670678935141
IRIDIUM 47 [+]          
1 25106U 97082C   15289.19725838  .00000184  00000-0  58510-4 0  9994
2 25106  86.3971 150.3528 0001965  88.7384  32.2370 14.34218066932931
IRIDIUM 49 [+]          
1 25108U 97082E   15289.54759839  .00000025  00000-0  20052-5 0  9998
2 25108  86.3974 150.2929 0002051  87.7399 335.5078 14.34217836932996
IRIDIUM 52 [+]          
1 25169U 98010A   15289.44781721  .00000195  00000-0  62740-4 0  9998
2 25169  86.3960 245.1916 0002242  82.7826  34.1370 14.34220410924383
IRIDIUM 56 [+]          
1 25170U 98010B   15289.44105175  .00000235  00000-0  76705-4 0  9994
2 25170  86.3957 245.2924 0002375  90.1944  24.6990 14.34219311924360
IRIDIUM 54 [+]          
1 25171U 98010C   15289.38077442  .00000192  00000-0  61485-4 0  9994
2 25171  86.3960 245.2374 0002226  82.7042 277.4406 14.34220075924522
IRIDIUM 50 [+]          
1 25172U 98010D   15289.43464948  .00000202  00000-0  65061-4 0  9998
2 25172  86.3960 245.1744 0002147  82.5455  32.0034 14.34217801924368
IRIDIUM 53 [+]          
1 25173U 98010E   15289.45465924  .00000200  00000-0  64228-4 0  9998
2 25173  86.3960 245.1720 0002233  82.6699  36.7943 14.34220179924373
IRIDIUM 51 [S]          
1 25262U 98018A   15289.37732877  .00000365  00000-0  12337-3 0  9995
2 25262  86.4021 213.8395 0001982  79.9874 280.1546 14.34216656923755
IRIDIUM 61 [+]          
1 25263U 98018B   15289.40904351  .00000307  00000-0  10249-3 0  9994
2 25263  86.4007 213.6875 0002129  82.3898 277.7539 14.34216289919468
IRIDIUM 55 [+]          
1 25272U 98019A   15289.27241602  .00000288  00000-0  95712-4 0  9990
2 25272  86.4013 181.9738 0002043  83.7363 276.4065 14.34216412918644
IRIDIUM 57 [+]          
1 25273U 98019B   15289.31681394  .00000279  00000-0  92471-4 0  9991
2 25273  86.4017 182.2351 0002044  83.8029 276.3399 14.34216174918650
IRIDIUM 58 [+]          
1 25274U 98019C   15289.32315756  .00000287  00000-0  95385-4 0  9995
2 25274  86.4020 182.4120 0002010  85.2788 274.8637 14.34216297918656
IRIDIUM 59 [+]          
1 25275U 98019D   15289.25972685  .00000302  00000-0  10070-3 0  9993
2 25275  86.4014 182.3249 0001958  81.7903 278.3515 14.34216797918649
IRIDIUM 60 [+]          
1 25276U 98019E   15289.26607549  .00000298  00000-0  99402-4 0  9990
2 25276  86.4011 181.9658 0002068  83.5962 276.5470 14.34216181918641
IRIDIUM 62 [+]          
1 25285U 98021A   15289.50659144  .00000009  00000-0 -39525-5 0  9990
2 25285  86.3932 118.8039 0001978  91.8137 268.3286 14.34217650917633
IRIDIUM 63 [-]          
1 25286U 98021B   15289.53556440  .00000191  00000-0  60933-4 0  9996
2 25286  86.3958 119.1558 0001888  88.3593 288.5927 14.34509691917645
IRIDIUM 64 [+]          
1 25287U 98021C   15289.51927716 -.00000007  00000-0 -96301-5 0  9990
2 25287  86.3935 118.8356 0002103  82.5538 277.5897 14.34217391917613
